[
  {
    "OBJECT_NAME": "STARLINK-3968",
    "OBJECT_ID": "22052AT",
    "EPOCH": "2025-11-11T00:41:48.511680",
    "MEAN_MOTION": 15.08845832,
    "ECCENTRICITY": 0.000164,
    "INCLINATION": 53.2179,
    "RA_OF_ASC_NODE": 71.8064,
    "ARG_OF_PERICENTER": 91.4139,
    "MEAN_ANOMALY": 268.7041,
    "EPHEMERIS_TYPE": 0,
    "CLASSIFICATION_TYPE": "U",
    "NORAD_CAT_ID": 52639,
    "ELEMENT_SET_NO": 999,
    "REV_AT_EPOCH": 19402,
    "BSTAR": 0.00012772,
    "MEAN_MOTION_DOT": 1.745e-05,
    "MEAN_MOTION_DDOT": 0.0,
    "TLE_LINE1": "1 52639U 22052AT  25315.02903370  .00001745  00000+0  12772-3 0  9994",
    "TLE_LINE2": "2 52639  53.2179  71.8064 0001640  91.4139 268.7041 15.08845832194026",
    "COMMENT": "Grouped by shell and plane from TLE"
  },
  {
    "OBJECT_NAME": "STARLINK-3977",
    "OBJECT_ID": "22052AU",
    "EPOCH": "2025-11-11T07:29:51.754848",
    "MEAN_MOTION": 15.08855322,
    "ECCENTRICITY": 0.0001371,
    "INCLINATION": 53.2176,
    "RA_OF_ASC_NODE": 70.5627,
    "ARG_OF_PERICENTER": 82.1607,
    "MEAN_ANOMALY": 277.954,
    "EPHEMERIS_TYPE": 0,
    "CLASSIFICATION_TYPE": "U",
    "NORAD_CAT_ID": 52640,
    "ELEMENT_SET_NO": 999,
    "REV_AT_EPOCH": 19325,
    "BSTAR": 7.3207e-05,
    "MEAN_MOTION_DOT": 8.78e-06,
    "MEAN_MOTION_DDOT": 0.0,
    "TLE_LINE1": "1 52640U 22052AU  25315.31240457  .00000878  00000+0  73207-4 0  9995",
    "TLE_LINE2": "2 52640  53.2176  70.5627 0001371  82.1607 277.9540 15.08855322193259",
    "COMMENT": "Grouped by shell and plane from TLE"
  },
  {
    "OBJECT_NAME": "STARLINK-3991",
    "OBJECT_ID": "22052AV",
    "EPOCH": "2025-11-11T07:25:57.855360",
    "MEAN_MOTION": 15.08838652,
    "ECCENTRICITY": 0.0001181,
    "INCLINATION": 53.2171,
    "RA_OF_ASC_NODE": 70.7484,
    "ARG_OF_PERICENTER": 85.6458,
    "MEAN_ANOMALY": 274.4669,
    "EPHEMERIS_TYPE": 0,
    "CLASSIFICATION_TYPE": "U",
    "NORAD_CAT_ID": 52641,
    "ELEMENT_SET_NO": 999,
    "REV_AT_EPOCH": 19326,
    "BSTAR": 2.8242e-05,
    "MEAN_MOTION_DOT": 1.62e-06,
    "MEAN_MOTION_DDOT": 0.0,
    "TLE_LINE1": "1 52641U 22052AV  25315.30969740  .00000162  00000+0  28242-4 0  9993",
    "TLE_LINE2": "2 52641  53.2171  70.7484 0001181  85.6458 274.4669 15.08838652193261",
    "COMMENT": "Grouped by shell and plane from TLE"
  },
  {
    "OBJECT_NAME": "STARLINK-3971",
    "OBJECT_ID": "22052AW",
    "EPOCH": "2025-11-11T07:13:57.268128",
    "MEAN_MOTION": 15.08840351,
    "ECCENTRICITY": 0.0001647,
    "INCLINATION": 53.218,
    "RA_OF_ASC_NODE": 70.5848,
    "ARG_OF_PERICENTER": 83.216,
    "MEAN_ANOMALY": 276.902,
    "EPHEMERIS_TYPE": 0,
    "CLASSIFICATION_TYPE": "U",
    "NORAD_CAT_ID": 52642,
    "ELEMENT_SET_NO": 999,
    "REV_AT_EPOCH": 19325,
    "BSTAR": 5.9250000000000004e-05,
    "MEAN_MOTION_DOT": 6.55e-06,
    "MEAN_MOTION_DDOT": 0.0,
    "TLE_LINE1": "1 52642U 22052AW  25315.30135727  .00000655  00000+0  59250-4 0  9994",
    "TLE_LINE2": "2 52642  53.2180  70.5848 0001647  83.2160 276.9020 15.08840351193251",
    "COMMENT": "Grouped by shell and plane from TLE"
  },
  {
    "OBJECT_NAME": "STARLINK-3963",
    "OBJECT_ID": "22052AX",
    "EPOCH": "2025-11-10T14:44:22.636896",
    "MEAN_MOTION": 15.08844695,
    "ECCENTRICITY": 0.0001366,
    "INCLINATION": 53.217,
    "RA_OF_ASC_NODE": 73.6419,
    "ARG_OF_PERICENTER": 85.299,
    "MEAN_ANOMALY": 274.8158,
    "EPHEMERIS_TYPE": 0,
    "CLASSIFICATION_TYPE": "U",
    "NORAD_CAT_ID": 52643,
    "ELEMENT_SET_NO": 999,
    "REV_AT_EPOCH": 19315,
    "BSTAR": 0.00010896,
    "MEAN_MOTION_DOT": 1.447e-05,
    "MEAN_MOTION_DDOT": 0.0,
    "TLE_LINE1": "1 52643U 22052AX  25314.61415089  .00001447  00000+0  10896-3 0  9992",
    "TLE_LINE2": "2 52643  53.2170  73.6419 0001366  85.2990 274.8158 15.08844695193153",
    "COMMENT": "Grouped by shell and plane from TLE"
  },
  {
    "OBJECT_NAME": "STARLINK-3985",
    "OBJECT_ID": "22052AY",
    "EPOCH": "2025-11-11T07:08:39.086304",
    "MEAN_MOTION": 15.0884667,
    "ECCENTRICITY": 0.0001209,
    "INCLINATION": 53.2177,
    "RA_OF_ASC_NODE": 70.6008,
    "ARG_OF_PERICENTER": 92.1467,
    "MEAN_ANOMALY": 267.9663,
    "EPHEMERIS_TYPE": 0,
    "CLASSIFICATION_TYPE": "U",
    "NORAD_CAT_ID": 52644,
    "ELEMENT_SET_NO": 999,
    "REV_AT_EPOCH": 19325,
    "BSTAR": 8.987800000000001e-05,
    "MEAN_MOTION_DOT": 1.143e-05,
    "MEAN_MOTION_DDOT": 0.0,
    "TLE_LINE1": "1 52644U 22052AY  25315.29767461  .00001143  00000+0  89878-4 0  9992",
    "TLE_LINE2": "2 52644  53.2177  70.6008 0001209  92.1467 267.9663 15.08846670193254",
    "COMMENT": "Grouped by shell and plane from TLE"
  },
  {
    "OBJECT_NAME": "STARLINK-3973",
    "OBJECT_ID": "22052AZ",
    "EPOCH": "2025-11-11T00:31:13.253088",
    "MEAN_MOTION": 15.0885902,
    "ECCENTRICITY": 0.0001307,
    "INCLINATION": 53.2162,
    "RA_OF_ASC_NODE": 71.9456,
    "ARG_OF_PERICENTER": 93.9904,
    "MEAN_ANOMALY": 266.1238,
    "EPHEMERIS_TYPE": 0,
    "CLASSIFICATION_TYPE": "U",
    "NORAD_CAT_ID": 52645,
    "ELEMENT_SET_NO": 999,
    "REV_AT_EPOCH": 19321,
    "BSTAR": 0.0,
    "MEAN_MOTION_DOT": -3.491e-05,
    "MEAN_MOTION_DDOT": 0.0,
    "TLE_LINE1": "1 52645U 22052AZ  25315.02168117 -.00003491  00000+0 -20124-3 0  9995",
    "TLE_LINE2": "2 52645  53.2162  71.9456 0001307  93.9904 266.1238 15.08859020193212",
    "COMMENT": "Grouped by shell and plane from TLE"
  },
  {
    "OBJECT_NAME": "STARLINK-3832",
    "OBJECT_ID": "22052BA",
    "EPOCH": "2025-11-11T06:58:03.639360",
    "MEAN_MOTION": 15.08839967,
    "ECCENTRICITY": 0.0001402,
    "INCLINATION": 53.2158,
    "RA_OF_ASC_NODE": 70.6742,
    "ARG_OF_PERICENTER": 88.5486,
    "MEAN_ANOMALY": 271.5667,
    "EPHEMERIS_TYPE": 0,
    "CLASSIFICATION_TYPE": "U",
    "NORAD_CAT_ID": 52646,
    "ELEMENT_SET_NO": 999,
    "REV_AT_EPOCH": 19326,
    "BSTAR": 8.8211e-05,
    "MEAN_MOTION_DOT": 1.116e-05,
    "MEAN_MOTION_DDOT": 0.0,
    "TLE_LINE1": "1 52646U 22052BA  25315.29031990  .00001116  00000+0  88211-4 0  9995",
    "TLE_LINE2": "2 52646  53.2158  70.6742 0001402  88.5486 271.5667 15.08839967193262",
    "COMMENT": "Grouped by shell and plane from TLE"
  },
  {
    "OBJECT_NAME": "STARLINK-3854",
    "OBJECT_ID": "22052BC",
    "EPOCH": "2025-11-11T00:25:54.732576",
    "MEAN_MOTION": 15.08844464,
    "ECCENTRICITY": 0.000141,
    "INCLINATION": 53.2174,
    "RA_OF_ASC_NODE": 71.8582,
    "ARG_OF_PERICENTER": 89.9587,
    "MEAN_ANOMALY": 270.1566,
    "EPHEMERIS_TYPE": 0,
    "CLASSIFICATION_TYPE": "U",
    "NORAD_CAT_ID": 52648,
    "ELEMENT_SET_NO": 999,
    "REV_AT_EPOCH": 19321,
    "BSTAR": 6.3064e-05,
    "MEAN_MOTION_DOT": 7.16e-06,
    "MEAN_MOTION_DDOT": 0.0,
    "TLE_LINE1": "1 52648U 22052BC  25315.01799459  .00000716  00000+0  63064-4 0  9992",
    "TLE_LINE2": "2 52648  53.2174  71.8582 0001410  89.9587 270.1566 15.08844464193219",
    "COMMENT": "Grouped by shell and plane from TLE"
  },
  {
    "OBJECT_NAME": "STARLINK-3868",
    "OBJECT_ID": "22052BD",
    "EPOCH": "2025-11-11T07:45:42.184224",
    "MEAN_MOTION": 15.0885102,
    "ECCENTRICITY": 7.98e-05,
    "INCLINATION": 53.2221,
    "RA_OF_ASC_NODE": 70.3404,
    "ARG_OF_PERICENTER": 322.121,
    "MEAN_ANOMALY": 37.9726,
    "EPHEMERIS_TYPE": 0,
    "CLASSIFICATION_TYPE": "U",
    "NORAD_CAT_ID": 52649,
    "ELEMENT_SET_NO": 999,
    "REV_AT_EPOCH": 19327,
    "BSTAR": 0.0002256,
    "MEAN_MOTION_DOT": 3.306e-05,
    "MEAN_MOTION_DDOT": 0.0,
    "TLE_LINE1": "1 52649U 22052BD  25315.32340491  .00003306  00000+0  22560-3 0  9998",
    "TLE_LINE2": "2 52649  53.2221  70.3404 0000798 322.1210  37.9726 15.08851020193272",
    "COMMENT": "Grouped by shell and plane from TLE"
  },
  {
    "OBJECT_NAME": "STARLINK-4415",
    "OBJECT_ID": "22099A",
    "EPOCH": "2025-11-11T07:50:10.768992",
    "MEAN_MOTION": 15.05647622,
    "ECCENTRICITY": 0.0001593,
    "INCLINATION": 97.6034,
    "RA_OF_ASC_NODE": 74.5466,
    "ARG_OF_PERICENTER": 88.3192,
    "MEAN_ANOMALY": 271.8217,
    "EPHEMERIS_TYPE": 0,
    "CLASSIFICATION_TYPE": "U",
    "NORAD_CAT_ID": 53465,
    "ELEMENT_SET_NO": 999,
    "REV_AT_EPOCH": 17822,
    "BSTAR": 0.00011555,
    "MEAN_MOTION_DOT": 1.607e-05,
    "MEAN_MOTION_DDOT": 0.0,
    "TLE_LINE1": "1 53465U 22099A   25315.32651353  .00001607  00000+0  11555-3 0  9992",
    "TLE_LINE2": "2 53465  97.6034  74.5466 0001593  88.3192 271.8217 15.05647622178221",
    "COMMENT": "Grouped by shell and plane from TLE"
  },
  {
    "OBJECT_NAME": "STARLINK-4398",
    "OBJECT_ID": "22099B",
    "EPOCH": "2025-11-11T06:52:46.440768",
    "MEAN_MOTION": 15.01263221,
    "ECCENTRICITY": 0.0001065,
    "INCLINATION": 97.6037,
    "RA_OF_ASC_NODE": 74.2933,
    "ARG_OF_PERICENTER": 185.8468,
    "MEAN_ANOMALY": 174.2744,
    "EPHEMERIS_TYPE": 0,
    "CLASSIFICATION_TYPE": "U",
    "NORAD_CAT_ID": 53466,
    "ELEMENT_SET_NO": 999,
    "REV_AT_EPOCH": 17821,
    "BSTAR": 0.00015409999999999998,
    "MEAN_MOTION_DOT": 1.922e-05,
    "MEAN_MOTION_DDOT": 0.0,
    "TLE_LINE1": "1 53466U 22099B   25315.28664862  .00001922  00000+0  15410-3 0  9991",
    "TLE_LINE2": "2 53466  97.6037  74.2933 0001065 185.8468 174.2744 15.01263221178219",
    "COMMENT": "Grouped by shell and plane from TLE"
  },
  {
    "OBJECT_NAME": "STARLINK-4394",
    "OBJECT_ID": "22099C",
    "EPOCH": "2025-11-11T06:06:29.911104",
    "MEAN_MOTION": 15.05663195,
    "ECCENTRICITY": 5.57e-05,
    "INCLINATION": 97.6031,
    "RA_OF_ASC_NODE": 74.5341,
    "ARG_OF_PERICENTER": 110.8329,
    "MEAN_ANOMALY": 249.2958,
    "EPHEMERIS_TYPE": 0,
    "CLASSIFICATION_TYPE": "U",
    "NORAD_CAT_ID": 53467,
    "ELEMENT_SET_NO": 999,
    "REV_AT_EPOCH": 17822,
    "BSTAR": 0.0,
    "MEAN_MOTION_DOT": -1.703e-05,
    "MEAN_MOTION_DDOT": 0.0,
    "TLE_LINE1": "1 53467U 22099C   25315.25451286 -.00001703  00000+0 -11382-3 0  9996",
    "TLE_LINE2": "2 53467  97.6031  74.5341 0000557 110.8329 249.2958 15.05663195178228",
    "COMMENT": "Grouped by shell and plane from TLE"
  }
]